SatCatId,ObjectName,LaunchYear,OrbitalPeriod,LaunchMass,StatusCode,Inclination,Status,UcsData,OrbitClassEstimated,LaunchSiteCountry,Owner,UseType,Purpose,LaunchVehicleClass,TLE1,TLE2,MeanMotion,Eccentricity,OrbitClass
52471,STARLINK-3862,2022,95.44,-1.0,+,53.22,Active,0,LEO,USA,USA,Unknown,Unknown,Falcon,1 52471U 22049W   23028.23930233  .00001293  00000+0  99362-4 0  9993,2 52471  53.2179 120.8466 0001506  81.3061 278.8101 15.08833935 40844,15.08833935,0.0001506,LEO
52472,STARLINK-3881,2022,95.44,-1.0,+,53.22,Active,0,LEO,USA,USA,Unknown,Unknown,Falcon,1 52472U 22049X   23027.56217737  .00002332  00000+0  16454-3 0  9991,2 52472  53.2149 123.8932 0001581  97.4219 262.6953 15.08843256 40583,15.08843256,0.0001581,LEO
52473,STARLINK-3879,2022,95.44,-1.0,+,53.21,Active,0,LEO,USA,USA,Unknown,Unknown,Falcon,1 52473U 22049Y   23028.23195559 -.00003802  00000+0 -22103-3 0  9997,2 52473  53.2149 120.8906 0001741  78.2609 281.8579 15.08820031 40842,15.08820031,0.0001741,LEO
52474,STARLINK-3855,2022,95.44,-1.0,+,53.22,Active,0,LEO,USA,USA,Unknown,Unknown,Falcon,1 52474U 22049Z   23028.24389930  .00000380  00000+0  42001-4 0  9993,2 52474  53.2167 110.8249 0001662 108.4167 251.7006 15.08840729 40981,15.08840729,0.0001662,LEO
52475,STARLINK-3882,2022,95.44,-1.0,+,53.22,Active,0,LEO,USA,USA,Unknown,Unknown,Falcon,1 52475U 22049AA  23028.22553540  .00000331  00000+0  38902-4 0  9993,2 52475  53.2157 120.9128 0001375 102.5833 257.5313 15.08838296 40841,15.08838296,0.0001375,LEO
52476,STARLINK-3835,2022,95.44,-1.0,+,53.22,Active,0,LEO,USA,USA,Unknown,Unknown,Falcon,1 52476U 22049AB  23028.24021865  .00000387  00000+0  42392-4 0  9995,2 52476  53.2165 110.8406 0001673 105.9706 254.1470 15.08840541 40983,15.08840541,0.0001673,LEO
52477,STARLINK-3860,2022,95.44,-1.0,+,53.22,Active,0,LEO,USA,USA,Unknown,Unknown,Falcon,1 52477U 22049AC  23028.24757872  .00001377  00000+0  10461-3 0  9991,2 52477  53.2167 110.8121 0001704 102.7817 257.3366 15.08838831 40981,15.08838831,0.0001704,LEO
52478,STARLINK-3825,2022,95.44,-1.0,+,53.22,Active,0,LEO,USA,USA,Unknown,Unknown,Falcon,1 52478U 22049AD  23027.48857623  .00001019  00000+0  82101-4 0  9996,2 52478  53.2163 124.2193 0001145 111.5680 248.5434 15.08836920 40739,15.0883692,0.0001145,LEO
52479,STARLINK-3878,2022,95.44,-1.0,+,53.22,Active,0,LEO,USA,USA,Unknown,Unknown,Falcon,1 52479U 22049AE  23027.37174233 -.00000518  00000+0 -14427-4 0  9995,2 52479  53.2174 114.7381 0001573 107.3262 252.7903 15.08835102 41931,15.08835102,0.0001573,LEO
52480,STARLINK-3839,2022,95.44,-1.0,+,53.22,Active,0,LEO,USA,USA,Unknown,Unknown,Falcon,1 52480U 22049AF  23027.94858416  .00001871  00000+0  13566-3 0  9995,2 52480  53.2179 122.1551 0001156 115.0428 245.0684 15.08831718 40802,15.08831718,0.0001156,LEO
52481,STARLINK-3842,2022,95.44,-1.0,+,53.21,Active,0,LEO,USA,USA,Unknown,Unknown,Falcon,1 52481U 22049AG  23027.55849916  .00001030  00000+0  82797-4 0  9998,2 52481  53.2155 123.9155 0001237  98.2430 261.8702 15.08834313 41825,15.08834313,0.0001237,LEO
52482,STARLINK-3813,2022,95.44,-1.0,+,53.22,Active,0,LEO,USA,USA,Unknown,Unknown,Falcon,1 52482U 22049AH  23027.49685945 -.00001072  00000+0 -49259-4 0  9996,2 52482  53.2162 114.1741 0001295  95.5869 264.5271 15.08838785 40712,15.08838785,0.0001295,LEO
52483,STARLINK-3875,2022,95.44,-1.0,+,53.22,Active,0,LEO,USA,USA,Unknown,Unknown,Falcon,1 52483U 22049AJ  23027.50789827  .00000792  00000+0  67840-4 0  9995,2 52483  53.2177 114.1233 0001395 103.4196 256.6952 15.08839787 41956,15.08839787,0.0001395,LEO
52484,STARLINK-3887,2022,95.44,-1.0,+,53.22,Active,0,LEO,USA,USA,Unknown,Unknown,Falcon,1 52484U 22049AK  23028.27609684 -.00001674  00000+0 -87068-4 0  9999,2 52484  53.2152 120.6866 0002094 110.9284 249.1932 15.08836752 40854,15.08836752,0.0002094,LEO
52485,STARLINK-3913,2022,95.44,-1.0,+,53.22,Active,0,LEO,USA,USA,Unknown,Unknown,Falcon,1 52485U 22049AL  23027.50053739  .00002765  00000+0  19170-3 0  9997,2 52485  53.2174 114.1596 0001315 116.8614 243.2512 15.08845579 40715,15.08845579,0.0001315,LEO
52486,STARLINK-3918,2022,95.44,-1.0,+,53.22,Active,0,LEO,USA,USA,Unknown,Unknown,Falcon,1 52486U 22049AM  23028.26874016  .00000004  00000+0  18330-4 0  9993,2 52486  53.2173 120.7236 0001531  90.1333 269.9834 15.08839074 40851,15.08839074,0.0001531,LEO
52487,STARLINK-3902,2022,95.44,-1.0,+,53.22,Active,0,LEO,USA,USA,Unknown,Unknown,Falcon,1 52487U 22049AN  23028.23014429 -.00006303  00000+0 -37847-3 0  9998,2 52487  53.2174 110.8797 0001641  92.8371 267.2809 15.08822569 40986,15.08822569,0.0001641,LEO
52488,STARLINK-3892,2022,95.44,-1.0,+,53.21,Active,0,LEO,USA,USA,Unknown,Unknown,Falcon,1 52488U 22049AP  23028.26504375  .00000513  00000+0  50285-4 0  9993,2 52488  53.2137 120.7434 0001509  78.8183 281.2979 15.08852672 40850,15.08852672,0.0001509,LEO
52489,STARLINK-3923,2022,95.44,-1.0,+,53.21,Active,0,LEO,USA,USA,Unknown,Unknown,Falcon,1 52489U 22049AQ  23027.54377254  .00000444  00000+0  45965-4 0  9990,2 52489  53.2148 123.9694 0001111  79.9133 280.1984 15.08844036 40581,15.08844036,0.0001111,LEO
52490,STARLINK-3914,2022,95.44,-1.0,+,53.22,Active,0,LEO,USA,USA,Unknown,Unknown,Falcon,1 52490U 22049AR  23027.55205442  .00001503  00000+0  11249-3 0  9996,2 52490  53.2160 113.9365 0001206  94.7169 265.3960 15.08845106 40724,15.08845106,0.0001206,LEO
52491,STARLINK-3908,2022,95.44,-1.0,+,53.21,Active,0,LEO,USA,USA,Unknown,Unknown,Falcon,1 52491U 22049AS  23027.55941880  .00001114  00000+0  88056-4 0  9999,2 52491  53.2145 113.9069 0001329  84.0757 276.0386 15.08840255 40721,15.08840255,0.0001329,LEO
52492,STARLINK-3916,2022,95.44,-1.0,+,53.21,Active,0,LEO,USA,USA,Unknown,Unknown,Falcon,1 52492U 22049AT  23027.54469983  .00001329  00000+0  10157-3 0  9992,2 52492  53.2133 113.9652 0001423  91.2541 268.8614 15.08837567 40728,15.08837567,0.0001423,LEO
52493,STARLINK-3883,2022,95.44,-1.0,+,53.21,Active,0,LEO,USA,USA,Unknown,Unknown,Falcon,1 52493U 22049AU  23028.21813668  .00001628  00000+0  12036-3 0  9991,2 52493  53.2135 110.9528 0001333  94.1738 265.9406 15.08834476 40981,15.08834476,0.0001333,LEO
52494,STARLINK-3857,2022,95.44,-1.0,+,53.22,Active,0,LEO,USA,USA,Unknown,Unknown,Falcon,1 52494U 22049AV  23028.26230336 -.00000871  00000+0 -36679-4 0  9993,2 52494  53.2154 110.7494 0001040 108.0912 252.0194 15.08836005 40999,15.08836005,0.000104,LEO
52495,STARLINK-3905,2022,95.44,-1.0,+,53.22,Active,0,LEO,USA,USA,Unknown,Unknown,Falcon,1 52495U 22049AW  23028.27702153  .00000251  00000+0  33835-4 0  9997,2 52495  53.2167 110.6829 0001388  87.9017 272.2134 15.08839656 40994,15.08839656,0.0001388,LEO
52496,STARLINK-3871,2022,95.44,-1.0,+,53.22,Active,0,LEO,USA,USA,Unknown,Unknown,Falcon,1 52496U 22049AX  23028.23147724 -.00000152  00000+0  85337-5 0  9997,2 52496  53.2168 105.8709 0001657 109.1546 250.9626 15.08840075 40897,15.08840075,0.0001657,LEO
52497,STARLINK-3884,2022,95.44,-1.0,+,53.21,Active,0,LEO,USA,USA,Unknown,Unknown,Falcon,1 52497U 22049AY  23027.54101799  .00000353  00000+0  40307-4 0  9992,2 52497  53.2150 113.9943 0001810 104.2067 255.9126 15.08839173 40723,15.08839173,0.000181,LEO
52498,STARLINK-3925,2022,95.44,-1.0,+,53.22,Active,0,LEO,USA,USA,Unknown,Unknown,Falcon,1 52498U 22049AZ  23028.17857302  .00010974  00000+0  70614-3 0  9994,2 52498  53.2161 101.1141 0001484  80.4397 279.6763 15.08858670 41110,15.0885867,0.0001484,LEO
52499,STARLINK-3894,2022,95.44,-1.0,+,53.22,Active,0,LEO,USA,USA,Unknown,Unknown,Falcon,1 52499U 22049BA  23027.47110032  .00000767  00000+0  66288-4 0  9991,2 52499  53.2150 114.3078 0002345 103.0329 257.0925 15.08837724 40710,15.08837724,0.0002345,LEO
52500,STARLINK-3866,2022,95.44,-1.0,+,53.22,Active,0,LEO,USA,USA,Unknown,Unknown,Falcon,1 52500U 22049BB  23027.38002016  .00000389  00000+0  42525-4 0  9994,2 52500  53.2172 104.7040 0001262  91.7312 268.3825 15.08835939 40834,15.08835939,0.0001262,LEO
52501,STARLINK-3907,2022,95.44,-1.0,+,53.22,Active,0,LEO,USA,USA,Unknown,Unknown,Falcon,1 52501U 22049BC  23027.53461760  .00000589  00000+0  55079-4 0  9997,2 52501  53.2167 114.0228 0001614  96.0188 264.0988 15.08835984 40722,15.08835984,0.0001614,LEO
52502,STARLINK-3912,2022,95.44,-1.0,+,53.22,Active,0,LEO,USA,USA,Unknown,Unknown,Falcon,1 52502U 22049BD  23028.23473766 -.00002562  00000+0 -14299-3 0  9998,2 52502  53.2170 100.8608 0000702  86.2129 273.8943 15.08832148 41128,15.08832148,7.02e-05,LEO
52503,STARLINK-3861,2022,95.44,-1.0,+,53.22,Active,0,LEO,USA,USA,Unknown,Unknown,Falcon,1 52503U 22049BE  23027.90625752  .00000242  00000+0  33307-4 0  9999,2 52503  53.2168 102.3424 0001160  97.9247 262.1877 15.08839426 40917,15.08839426,0.000116,LEO
52533,STARLINK-3951,2022,95.44,-1.0,+,53.21,Active,0,LEO,USA,USA,Unknown,Unknown,Falcon,1 52533U 22051A   23028.22645662  .00000654  00000+0  59211-4 0  9992,2 52533  53.2149 190.9035 0001546  83.5806 276.5363 15.08837662 39940,15.08837662,0.0001546,LEO
52534,STARLINK-3952,2022,95.44,-1.0,+,53.22,Active,0,LEO,USA,USA,Unknown,Unknown,Falcon,1 52534U 22051B   23027.76918006  .00000665  00000+0  59863-4 0  9991,2 52534  53.2155 192.9558 0001539  85.9322 274.1846 15.08836678 40545,15.08836678,0.0001539,LEO
52535,STARLINK-3958,2022,95.44,-1.0,+,53.21,Active,0,LEO,USA,USA,Unknown,Unknown,Falcon,1 52535U 22051C   23028.22917866  .00000718  00000+0  63166-4 0  9997,2 52535  53.2147 190.8921 0001199  87.8281 272.2848 15.08839056 39941,15.08839056,0.0001199,LEO
52536,STARLINK-3964,2022,95.44,-1.0,+,53.22,Active,0,LEO,USA,USA,Unknown,Unknown,Falcon,1 52536U 22051D   23027.76182132  .00003880  00000+0  26165-3 0  9996,2 52536  53.2146 192.9951 0001617  76.0067 284.1105 15.08849264 39809,15.08849264,0.0001617,LEO
52537,STARLINK-3897,2022,95.44,-1.0,+,53.22,Active,0,LEO,USA,USA,Unknown,Unknown,Falcon,1 52537U 22051E   23027.69190070  .00000069  00000+0  22401-4 0  9995,2 52537  53.2154 193.3115 0001472 102.3974 257.7183 15.08832519 39790,15.08832519,0.0001472,LEO
